STARS-AO
1 43679U 18084J   25329.99870398  .00008783  00000-0  48890-3 0  9992
2 43679  98.0648 166.6189 0003207 118.6470 241.5083 15.13900585386694
EAGLESAT-1
1 43018U 17073F   25317.28448551  .18135023  27542-5  46852-3 0  9995
2 43018  97.4848 220.6904 0010374 201.0159 159.0718 16.45094922434952
LUOJIA-1 01
1 43485U 18048B   25330.20041803  .00002986  00000-0  34570-3 0  9993
2 43485  97.8303  46.6068 0010413  72.1629 288.0721 14.86211624404058
DIWATA-2B (PO-101)
1 43678U 18084H   25330.16831791  .00003011  00000-0  25166-3 0  9996
2 43678  98.1035 152.9662 0007288  86.4080 273.7975 14.99311659385787
ESHAIL-2
1 43700U 18090A   25330.08516823  .00000164  00000-0  00000+0 0  9998
2 43700   0.0171 279.9144 0002468   5.0145 196.8450  1.00272057 25640
K2SAT
1 43761U 18099D   25330.11104867  .00003356  00000-0  23816-3 0  9999
2 43761  97.4479  13.2066 0010583 328.0669  31.9916 15.05357292381541
AISTECHSAT-2
1 43768U 18099L   25330.08372036  .00008593  00000-0  49395-3 0  9995
2 43768  97.4605  17.5744 0003520 287.4915  72.5931 15.12721080381540
SNUSAT-2
1 43782U 18099AA  25330.11373464  .00011144  00000-0  55302-3 0  9992
2 43782  97.4373  21.8087 0009734 287.7342  72.2829 15.17832262382180
ITASAT-1
1 43786U 18099AE  25330.12932888  .00009182  00000-0  48433-3 0  9994
2 43786  97.4344  20.7898 0013002 346.5342  13.5542 15.15702194382118
IRVINE02
1 43789U 18099AH  25330.17919242  .00113713  00000-0  14844-2 0  9995
2 43789  97.4423  42.6248 0006303 243.0887 116.9725 15.58273120383191
EAGLET-1
1 43790U 18099AJ  25330.14888272  .00006530  00000-0  39555-3 0  9997
2 43790  97.4544  20.1136 0010778 333.9966  26.0721 15.10874858381651
ESEO
1 43792U 18099AL  25330.10916492  .00002197  00000-0  16570-3 0  9998
2 43792  97.4271  10.9722 0010361 313.4511  46.5852 15.03391986381284
HIBER-2
1 43774U 18099S   25330.18829582  .00138228  00000-0  15898-2 0  9995
2 43774  97.4656  44.6690 0004165 238.3113 121.7739 15.61543269383398
MINXSS-2
1 43758U 18099A   25330.18544852  .00030151  00000-0  93429-3 0  9994
2 43758  97.4817  37.3397 0008866 276.3062  83.7170 15.33351169382883
FOX-1CLIFF (AO-95)
1 43770U 18099N   25330.15489220  .00014294  00000-0  64034-3 0  9992
2 43770  97.4696  26.5658 0009321 350.5819   9.5241 15.21319070382296
CORVUS-BC4
1 43767U 18099K   25330.08433897  .00007000  00000-0  43075-3 0  9998
2 43767  97.4369  13.9525 0008331 351.8300   8.2793 15.10292529381723
CZ-4B R/B
1 43656U 18081B   25330.18308360  .00000181  00000-0  70407-4 0  9996
2 43656  99.3755 226.8632 0205681 131.2840 230.6256 14.31748829370252
COSMOS 2504 [i]
1 40555U 15020D   25330.18577552  .00000373  00000-0  12839-3 0  9999
2 40555  82.5192  28.1864 0609709 106.0489 260.8655 13.61219697522574
MERIDIAN-4
1 37398U 11018A   25313.50843479  .00001453  00000-0  24935-2 0  9993
2 37398  62.1251 110.0794 7442181 262.7149  15.8926  2.00686552106359
MERIDIAN-6
1 38995U 12063A   25329.18907139 -.00000619  00000-0  00000+0 0  9991
2 38995  64.4832  24.0381 7295432 229.8892  39.5105  2.00573816 95417
MERIDIAN-7
1 40296U 14069A   25328.78908730  .00000048  00000-0  00000-0 0  9995
2 40296  63.4631 235.8797 6738957 271.7744  18.5289  2.00604556 81138
METOP-C
1 43689U 18087A   25330.13979862  .00000159  00000-0  92640-4 0  9992
2 43689  98.6951  28.1617 0001941  68.6142 291.5242 14.21502659365988
FENGYUN-3B
1 37214U 10059A   25330.20107303  .00000090  00000-0  69963-4 0  9997
2 37214  98.9931  10.0611 0022750  44.0439  42.3299 14.14782927778722
FENGYUN-3C
1 39260U 13052A   25330.20632076  .00000137  00000-0  90722-4 0  9995
2 39260  98.4746 308.6945 0013614 246.3085 113.6661 14.15688583629840
EWS-G1 (GOES-13)
1 29155U 06018A   25330.02186979  .00000073  00000-0  00000+0 0  9991
2 29155   4.0024  78.9006 0059930 268.4999 140.4557  0.98785093 41243
FENGYUN-2H
1 43491U 18050A   25330.09796359 -.00000111  00000-0  00000+0 0  9999
2 43491   2.5047  81.5166 0002544 156.4429 301.9485  1.00272914 27403
FENGYUN-2G
1 40367U 14090A   25329.81664267 -.00000284  00000-0  00000+0 0  9999
2 40367   5.1223  75.2953 0002634 192.3135 191.1765  1.00271702 39962
INMARSAT 4-F1
1 28628U 05009A   25330.04622329  .00000051  00000-0  00000+0 0  9996
2 28628   4.8944  42.5196 0003395 203.6271  13.8298  1.00271352 75638
INMARSAT 4-F2
1 28899U 05044A   25330.05114161 -.00000242  00000-0  00000+0 0  9999
2 28899   4.8289  43.6396 0003230 203.2096 340.3159  1.00271138 73480
INMARSAT 4-F3
1 33278U 08039A   25329.06411561 -.00000122  00000-0  00000-0 0  9994
2 33278   4.1215  30.7219 0003087 220.8414  97.7950  1.00270902 44498
INMARSAT 4A-F4 (ALPHASAT)
1 39215U 13038A   25330.01580309  .00000152  00000-0  00000+0 0  9991
2 39215   2.9634   2.9229 0002002 228.7172 224.0217  1.00270843 41988
ASTROCAST
1 43798U 18099AS  25330.19001285  .00029975  00000-0  85119-3 0  9996
2 43798  97.4645  39.1741 0005787 224.1022 135.9760 15.36131205383139
JY1SAT (JO-97)
1 43803U 18099AX  25329.83710470  .00020543  00000-0  79828-3 0  9997
2 43803  97.4444  27.7158 0005272 271.3377  88.7257 15.26074503382539
SUOMI-100
1 43804U 18099AY  25330.09844823  .00015596  00000-0  67070-3 0  9996
2 43804  97.4504  26.6946 0009733 276.4355  83.5773 15.22689258382450
GEO-KOMPSAT-2A
1 43823U 18100A   25328.89483891 -.00000324  00000-0  00000+0 0  9999
2 43823   0.0581 105.2038 0000892  23.8125  25.5126  1.00270536 25580
UWE-4
1 43880U 18111E   25329.73625341  .00031454  00000-0  97706-3 0  9996
2 43880  97.5843 245.8061 0009826 350.0474  10.0572 15.33255566379471
D-STAR ONE SPARROW
1 43881U 18111F   25330.05594264  .00046654  00000-0  10830-2 0  9993
2 43881  97.6082 252.7660 0006705  26.3201 333.8385 15.42211270379791
METEOR M2-2
1 44387U 19038A   25330.22805331  .00000176  00000-0  96075-4 0  9999
2 44387  98.8956 309.7562 0000502 187.5650 172.5521 14.24280829332409
MOMENTUS-X1
1 44408U 19038Y   25330.00952308  .00030131  00000-0  50512-3 0  9995
2 44408  97.7055 353.9440 0012416  46.4219 313.8061 15.51704922354902
MERIDIAN-8
1 44453U 19046A   25329.35114727  .00000140  00000-0  00000-0 0  9996
2 44453  62.9490  76.6385 7001681 274.2433  15.5092  2.00623606 46259
TAURUS-1
1 44530U 19059C   25330.21888991  .00009900  00000-0  17047-2 0  9998
2 44530  98.6230 118.1676 0009060 224.8995 135.1477 14.68745464328819
GAOFEN 12-01
1 44819U 19082A   25330.18616933  .00000619  00000-0  87308-4 0  9992
2 44819  97.8131 336.9016 0001694 337.0198  23.0939 14.80628468324053
DUCHIFAT-3
1 44854U 19089C   25330.12612882  .00558916  12072-3  17843-2 0  9999
2 44854  36.9290 337.3412 0009717 169.2189 190.8791 15.90003340329485
CAS-6 (TO-108)
1 44881U 19093C   25330.20401447  .00001275  00000-0  15159-3 0  9991
2 44881  97.7777  42.2043 0014526  39.4300 320.7970 14.86046929321264
ELEKTRO-L3
1 44903U 19095A   25330.09735693 -.00000078  00000-0  00000+0 0  9994
2 44903   0.0397 213.1515 0002316  53.3754 269.8127  1.00272335 21672
DOSAAF-85 (RS-44)
1 44909U 19096E   25330.12696911  .00000032  00000-0  89737-4 0  9992
2 44909  82.5189 114.6479 0216567 259.0731  98.5937 12.79745609276373
MERIDIAN-9
1 45254U 20015A   25329.08619784 -.00000091  00000-0  00000-0 0  9993
2 45254  65.4355 340.9855 6917331 281.2616  13.7976  2.00615036 42192
ION-MK01
1 46274U 20061C   25330.13808740  .00059750  00000-0  60146-3 0  9992
2 46274  97.2204  40.1430 0000645 342.2256  17.8981 15.65243542291351
DEKART
1 46493U 20068H   25330.22903439  .00015016  00000-0  49454-3 0  9999
2 46493  97.8727 320.8748 0008327 289.7090  70.3252 15.31561003284643
NORBY
1 46494U 20068J   25330.19086495  .00024905  00000-0  66246-3 0  9995
2 46494  97.8677 324.7954 0005830 271.4515  88.6060 15.38208402284890
SALSAT (TUBSAT 22)
1 46495U 20068K   25329.87738618  .00009835  00000-0  38613-3 0  9992
2 46495  97.8782 316.2467 0008885 301.0703  58.9662 15.25907705284318
NETSAT-4
1 46504U 20068U   25329.89374350  .00020252  00000-0  57912-3 0  9993
2 46504  97.8600 318.0476 0005905 346.6691  13.4394 15.36000325284489
NETSAT-3
1 46505U 20068V   25329.92014413  .00020000  00000-0  59891-3 0  9998
2 46505  97.8616 316.6293 0006395   3.2512 356.8770 15.34547552284422
NETSAT-1
1 46506U 20068W   25329.90931899  .00016545  00000-0  59916-3 0  9990
2 46506  97.8665 313.0689 0006775  18.9593 341.1896 15.28457967284183
NETSAT-2
1 46507U 20068X   25329.89757373  .00022291  00000-0  63011-3 0  9998
2 46507  97.8609 317.5137 0005745  23.6787 336.4719 15.36342048284423
ARKTIKA-M1
1 47719U 21016A   25330.12769414 -.00000005  00000-0  00000+0 0  9990
2 47719  63.1753  86.2841 7194663 269.0636  15.7380  2.00612931 34715
SIMBA
1 47941U 21022K   25330.22452828  .00099231  00000-0  10750-2 0  9997
2 47941  97.4055 240.0582 0010289  63.0031 297.2277 15.63168304259505
UNISAT-7
1 47945U 21022P   25330.15472453  .00017442  00000-0  53174-3 0  9991
2 47945  97.4034 228.6788 0012648  82.0813 278.1864 15.33940052258667
CSS (TIANHE-1)
1 48274U 21035A   25329.86324030  .00027410  00000-0  35414-3 0  9997
2 48274  41.4666 119.0885 0010782 270.4093  89.5510 15.58266701261399
FENGYUN-4B
1 48808U 21047A   25330.24546667 -.00000311  00000-0  00000+0 0  9990
2 48808   0.0727 295.6515 0010408  70.2428 252.4814  1.00276659 16532
TUBIN
1 48900U 21059X   25330.19155260  .00404585  67954-4  10128-2 0  9995
2 48900  97.6649 156.1649 0002405 312.6856  47.4216 15.95721199246676
CUTE-LASP
1 49263U 21088D   25330.20355666  .00060804  00000-0  82861-3 0  9995
2 49263  97.4360  52.3283 0004960 341.8075  18.3002 15.57323965230729
JILIN-01 GAOFEN 2F
1 49338U 21097A   25330.16634528  .00006981  00000-0  48523-3 0  9993
2 49338  97.6476  92.4981 0019274 195.6972 164.3660 15.05685631225749
TEIKYOSAT-4 (OORURI)
1 49396U 21102B   25330.08609486  .00002679  00000-0  17539-3 0  9993
2 49396  97.3920   2.3106 0010496 272.5240  87.4787 15.08531659222096
Z-SAT
1 49399U 21102E   25330.14727940  .00005728  00000-0  29896-3 0  9996
2 49399  97.3602   6.5904 0015974 231.9347 128.0446 15.16202153222650
